NORAD_CAT_ID,OBJECT_NAME,OBJECT_TYPE,EPOCH,MEAN_MOTION,ECCENTRICITY,INCLINATION,RA_OF_ASC_NODE,ARG_OF_PERICENTER,MEAN_ANOMALY,BSTAR,MEAN_MOTION_DOT,MEAN_MOTION_DDOT,TLE_LINE0,TLE_LINE1,TLE_LINE2,SEMIMAJOR_AXIS,PERIOD,APOGEE,PERIGEE,DECAYED
52995.0,STARLINK-4296,PAYLOAD,2024-05-18 19:25:38,15.08836979,0.000139,53.2147,176.4368,84.1908,275.9242,-5.5259e-05,-1.167e-05,0.0,0 STARLINK-4296,1 52995U 22076K   24139.80947072 -.00001167  00000-0 -55259-4 0  9990,2 52995  53.2147 176.4368 0001390  84.1908 275.9242 15.08836979103698,6917.89,95.438,540.716,538.793,0.0
52995.0,STARLINK-4296,PAYLOAD,2024-05-19 09:44:07,15.08832364,0.0001668,53.2165,173.7605,85.1954,274.9228,-2.4515e-05,-6.78e-06,0.0,0 STARLINK-4296,1 52995U 22076K   24140.40564318 -.00000678  00000-0 -24515-4 0  9993,2 52995  53.2165 173.7605 0001668  85.1954 274.9228 15.08832364103318,6917.904,95.438,540.923,538.615,0.0
52995.0,STARLINK-4296,PAYLOAD,2024-05-20 11:10:17,15.08842437,0.0001658,53.2157,169.0041,84.8205,275.2976,0.00035313,5.337e-05,0.0,0 STARLINK-4296,1 52995U 22076K   24141.46548094  .00005337  00000-0  35313-3 0  9995,2 52995  53.2157 169.0041 0001658  84.8205 275.2976 15.08842437103940,6917.873,95.437,540.885,538.591,0.0
52995.0,STARLINK-4296,PAYLOAD,2024-05-21 07:50:18,15.08843558,0.0001689,53.2155,165.1398,83.9212,276.1972,0.00017871,2.558e-05,0.0,0 STARLINK-4296,1 52995U 22076K   24142.32660147  .00002558  00000-0  17871-3 0  9996,2 52995  53.2155 165.1398 0001689  83.9212 276.1972 15.08843558104078,6917.87,95.437,540.903,538.566,0.0
52995.0,STARLINK-4296,PAYLOAD,2024-05-22 04:30:19,15.08839998,0.0001604,53.2149,161.2735,99.2665,260.8509,6.9623e-05,8.2e-06,0.0,0 STARLINK-4296,1 52995U 22076K   24143.18772219  .00000820  00000-0  69623-4 0  9998,2 52995  53.2149 161.2735 0001604  99.2665 260.8509 15.08839998104206,6917.88,95.438,540.855,538.636,0.0
52995.0,STARLINK-4296,PAYLOAD,2024-05-22 07:41:05,15.08840641,0.0001577,53.215,160.679,88.9762,271.141,6.3838e-06,-1.86e-06,0.0,0 STARLINK-4296,1 52995U 22076K   24143.32020193 -.00000186  00000-0  63838-5 0  9990,2 52995  53.2150 160.6790 0001577  88.9762 271.1410 15.08840641103756,6917.878,95.438,540.834,538.652,0.0
52995.0,STARLINK-4296,PAYLOAD,2024-05-23 10:42:38,15.08843056,0.0001542,53.2164,155.6218,99.2039,260.9128,9.8458e-05,1.279e-05,0.0,0 STARLINK-4296,1 52995U 22076K   24144.44627749  .00001279  00000-0  98458-4 0  9992,2 52995  53.2164 155.6218 0001542  99.2039 260.9128 15.08843056104390,6917.871,95.437,540.803,538.669,0.0
52995.0,STARLINK-4296,PAYLOAD,2024-05-24 07:22:39,15.0883895,0.0001439,53.2164,151.7559,88.0316,272.0841,6.2027e-05,6.99e-06,0.0,0 STARLINK-4296,1 52995U 22076K   24145.30740076  .00000699  00000-0  62027-4 0  9995,2 52995  53.2164 151.7559 0001439  88.0316 272.0841 15.08838950104522,6917.884,95.438,540.744,538.753,0.0
52995.0,STARLINK-4296,PAYLOAD,2024-05-25 04:02:40,15.08833245,0.0001543,53.2168,147.8925,82.7394,277.3774,-3.3334e-05,-8.18e-06,0.0,0 STARLINK-4296,1 52995U 22076K   24146.16852938 -.00000818  00000-0 -33334-4 0  9995,2 52995  53.2168 147.8925 0001543  82.7394 277.3774 15.08833245104651,6917.901,95.438,540.833,538.699,0.0
52995.0,STARLINK-4296,PAYLOAD,2024-05-25 10:24:13,15.08837195,0.0001544,53.2164,146.7019,88.2274,271.8895,7.975e-06,-1.61e-06,0.0,0 STARLINK-4296,1 52995U 22076K   24146.43348577 -.00000161  00000-0  79750-5 0  9997,2 52995  53.2164 146.7019 0001544  88.2274 271.8895 15.08837195104222,6917.889,95.438,540.822,538.686,0.0
52995.0,STARLINK-4296,PAYLOAD,2024-05-26 03:53:27,15.08835043,0.0001628,53.2174,143.4405,111.4796,248.637,5.7306e-05,6.24e-06,0.0,0 STARLINK-4296,1 52995U 22076K   24147.16212714  .00000624  00000-0  57306-4 0  9996,2 52995  53.2174 143.4405 0001628 111.4796 248.6370 15.08835043104801,6917.896,95.438,540.887,538.634,0.0
52995.0,STARLINK-4296,PAYLOAD,2024-05-26 08:39:37,15.08835538,0.0001404,53.2163,142.5392,87.8867,272.2286,1.8073e-05,0.0,0.0,0 STARLINK-4296,1 52995U 22076K   24147.36084812  .00000000  00000-0  18073-4 0  9990,2 52995  53.2163 142.5392 0001404  87.8867 272.2286 15.08835538104360,6917.894,95.438,540.73,538.788,0.0
52995.0,STARLINK-4296,PAYLOAD,2024-05-26 16:36:32,15.08831821,0.0001419,53.2161,141.0517,112.6596,247.4546,8.4353e-05,1.055e-05,0.0,0 STARLINK-4296,1 52995U 22076K   24147.69204857  .00001055  00000-0  84353-4 0  9994,2 52995  53.2161 141.0517 0001419 112.6596 247.4546 15.08831821104413,6917.905,95.438,540.752,538.789,0.0
52995.0,STARLINK-4296,PAYLOAD,2024-05-27 08:30:23,15.08841747,0.0001562,53.2163,138.0775,101.5022,258.6146,0.00010571,1.395e-05,0.0,0 STARLINK-4296,1 52995U 22076K   24148.35444431  .00001395  00000-0  10571-3 0  9999,2 52995  53.2163 138.0775 0001562 101.5022 258.6146 15.08841747104987,6917.875,95.437,540.821,538.659,0.0
52995.0,STARLINK-4296,PAYLOAD,2024-05-27 16:27:19,15.08842766,0.0001486,53.2164,136.5899,93.9903,266.1259,0.00011354,1.52e-05,0.0,0 STARLINK-4296,1 52995U 22076K   24148.68564262  .00001520  00000-0  11354-3 0  9990,2 52995  53.2164 136.5899 0001486  93.9903 266.1259 15.08842766104560,6917.872,95.437,540.765,538.709,0.0
52995.0,STARLINK-4296,PAYLOAD,2024-05-28 05:10:25,15.08839838,0.0001498,53.2159,134.2127,88.7728,271.3436,5.3784e-05,5.68e-06,0.0,0 STARLINK-4296,1 52995U 22076K   24149.21556784  .00000568  00000-0  53784-4 0  9995,2 52995  53.2159 134.2127 0001498  88.7728 271.3436 15.08839838105116,6917.881,95.438,540.782,538.71,0.0
52995.0,STARLINK-4296,PAYLOAD,2024-05-28 08:21:11,15.08841423,0.0001511,53.2161,133.6172,88.6589,271.4576,6.4793e-05,7.43e-06,0.0,0 STARLINK-4296,1 52995U 22076K   24149.34804638  .00000743  00000-0  64793-4 0  9990,2 52995  53.2161 133.6172 0001511  88.6589 271.4576 15.08841423104660,6917.876,95.437,540.786,538.696,0.0
52995.0,STARLINK-4296,PAYLOAD,2024-05-28 22:39:39,15.08844796,0.0001538,53.2159,130.9399,94.7675,265.3493,3.2229e-05,2.25e-06,0.0,0 STARLINK-4296,1 52995U 22076K   24149.94420352  .00000225  00000-0  32229-4 0  9997,2 52995  53.2159 130.9399 0001538  94.7675 265.3493 15.08844796104757,6917.866,95.437,540.795,538.667,0.0
52995.0,STARLINK-4296,PAYLOAD,2024-05-29 05:01:11,15.08845169,0.0001573,53.2164,129.7521,85.8911,274.2261,4.7009e-05,4.6e-06,0.0,0 STARLINK-4296,1 52995U 22076K   24150.20916231  .00000460  00000-0  47009-4 0  9997,2 52995  53.2164 129.7521 0001573  85.8911 274.2261 15.08845169104790,6917.865,95.437,540.818,538.641,0.0
52995.0,STARLINK-4296,PAYLOAD,2024-05-30 04:51:58,15.088435,0.0001499,53.2163,125.2912,89.5381,270.5782,3.3965e-05,2.53e-06,0.0,0 STARLINK-4296,1 52995U 22076K   24151.20276202  .00000253  00000-0  33965-4 0  9991,2 52995  53.2163 125.2912 0001499  89.5381 270.5782 15.08843500105417,6917.87,95.437,540.772,538.698,0.0
52995.0,STARLINK-4296,PAYLOAD,2024-05-30 08:02:44,15.08844313,0.000149,53.2163,124.6961,91.1174,268.9989,4.0613e-05,3.59e-06,0.0,0 STARLINK-4296,1 52995U 22076K   24151.33524080  .00000359  00000-0  40613-4 0  9990,2 52995  53.2163 124.6961 0001490  91.1174 268.9989 15.08844313104966,6917.867,95.437,540.763,538.701,0.0
52995.0,STARLINK-4296,PAYLOAD,2024-05-30 22:21:13,15.08837519,0.000165,53.2169,122.0187,102.6971,257.4205,-1.6007e-05,-5.43e-06,0.0,0 STARLINK-4296,1 52995U 22076K   24151.93140671 -.00000543  00000-0 -16007-4 0  9993,2 52995  53.2169 122.0187 0001650 102.6971 257.4205 15.08837519105050,6917.888,95.438,540.894,538.612,0.0
52995.0,STARLINK-4296,PAYLOAD,2024-05-31 04:42:46,15.08837834,0.0001651,53.2171,120.8296,102.0116,258.1062,-1.3065e-05,-4.96e-06,0.0,0 STARLINK-4296,1 52995U 22076K   24152.19636654 -.00000496  00000-0 -13065-4 0  9991,2 52995  53.2171 120.8296 0001651 102.0116 258.1062 15.08837834105561,6917.887,95.438,540.894,538.61,0.0
52995.0,STARLINK-4296,PAYLOAD,2024-05-31 07:53:32,15.08838055,0.0001643,53.217,120.2347,102.0573,258.0603,-1.0968e-05,-4.63e-06,0.0,0 STARLINK-4296,1 52995U 22076K   24152.32884642 -.00000463  00000-0 -10968-4 0  9991,2 52995  53.2170 120.2347 0001643 102.0573 258.0603 15.08838055105116,6917.886,95.438,540.888,538.615,0.0
52995.0,STARLINK-4296,PAYLOAD,2024-06-01 14:05:51,15.08840841,0.0001513,53.2173,114.5867,91.3555,268.761,-6.2302e-06,-3.87e-06,0.0,0 STARLINK-4296,1 52995U 22076K   24153.58740539 -.00000387  00000-0 -62302-5 0  9991,2 52995  53.2173 114.5867 0001513  91.3555 268.7610 15.08840841105301,6917.878,95.438,540.789,538.696,0.0
52995.0,STARLINK-4296,PAYLOAD,2024-06-02 04:24:21,15.08828897,0.000167,53.2187,111.9142,97.5909,262.5273,-2.0549e-06,-3.21e-06,0.0,0 STARLINK-4296,1 52995U 22076K   24154.18357665 -.00000321  00000-0 -20549-5 0  9997,2 52995  53.2187 111.9142 0001670  97.5909 262.5273 15.08828897105863,6917.914,95.438,540.935,538.624,0.0
52995.0,STARLINK-4296,PAYLOAD,2024-06-02 13:56:39,15.08832495,0.0001649,53.2188,110.13,96.025,264.0931,3.6831e-06,-2.29e-06,0.0,0 STARLINK-4296,1 52995U 22076K   24154.58101689 -.00000229  00000-0  36831-5 0  9991,2 52995  53.2188 110.1300 0001649  96.0250 264.0931 15.08832495105452,6917.903,95.438,540.909,538.628,0.0
52995.0,STARLINK-4296,PAYLOAD,2024-06-03 04:15:07,15.08843839,0.0001574,53.2184,107.4535,95.2433,264.8738,7.0107e-05,8.28e-06,0.0,0 STARLINK-4296,1 52995U 22076K   24155.17716852  .00000828  00000-0  70107-4 0  9998,2 52995  53.2184 107.4535 0001574  95.2433 264.8738 15.08843839106018,6917.869,95.437,540.823,538.645,0.0
52995.0,STARLINK-4296,PAYLOAD,2024-06-03 13:47:26,15.08843039,0.0001462,53.2175,105.6675,99.708,260.4077,1.5451e-05,-4.2e-07,0.0,0 STARLINK-4296,1 52995U 22076K   24155.57460966 -.00000042  00000-0  15451-4 0  9994,2 52995  53.2175 105.6675 0001462  99.7080 260.4077 15.08843039105600,6917.871,95.437,540.747,538.725,0.0
52995.0,STARLINK-4296,PAYLOAD,2024-06-03 20:08:59,15.08829182,0.0001466,53.2172,104.4772,89.6826,270.4335,0.00022108,3.231e-05,0.0,0 STARLINK-4296,1 52995U 22076K   24155.83957287  .00003231  00000-0  22108-3 0  9998,2 52995  53.2172 104.4772 0001466  89.6826 270.4335 15.08829182106110,6917.913,95.438,540.793,538.764,0.0
